; EON-OpenSlicer slicer_v2 semantic emitter
; firmware=marlin
G21 ; mm units
G90 ; absolute XYZ mode
M82 ; absolute extrusion
G92 E0
;LAYER:0
G0 Z0.100 F9000
G0 X110.000 Y110.000 F9000
G1 E-0.80000 F3600 ; retract
G1 X-64.500 Y-67.500 E12149.90189 F3600
;LAYER:1
G0 Z0.200 F9000
G0 X110.000 Y110.000 F9000
G1 E12149.10189 F3600 ; retract
G1 X-64.500 Y-67.500 E24299.80377 F3600
;LAYER:2
G0 Z0.400 F9000
G0 X110.000 Y110.000 F9000
G1 E24299.00377 F3600 ; retract
G1 X-64.500 Y-67.500 E36449.70566 F3600
;LAYER:3
G0 Z0.600 F9000
G0 X110.000 Y110.000 F9000
G1 E36448.90566 F3600 ; retract
G1 X-64.500 Y-67.500 E38114.68257 F3600
;LAYER:4
G0 Z0.800 F9000
G0 X110.000 Y110.000 F9000
G1 E38113.88257 F3600 ; retract
G1 X-64.500 Y-67.500 E39779.65948 F3600
;LAYER:5
G0 Z1.000 F9000
G0 X110.000 Y110.000 F9000
G1 E39778.85948 F3600 ; retract
G1 X-64.500 Y-67.500 E41444.63640 F3600
;LAYER:6
G0 Z1.200 F9000
G0 X110.000 Y110.000 F9000
G1 E41443.83640 F3600 ; retract
G1 X-64.500 Y-67.500 E43109.61331 F3600
;LAYER:7
G0 Z1.400 F9000
G0 X110.000 Y110.000 F9000
G1 E43108.81331 F3600 ; retract
G1 X-64.500 Y-67.500 E44774.59022 F3600
;LAYER:8
G0 Z1.600 F9000
G0 X110.000 Y110.000 F9000
G1 E44773.79022 F3600 ; retract
G1 X-64.500 Y-67.500 E46439.56714 F3600
;LAYER:9
G0 Z1.800 F9000
G0 X110.000 Y110.000 F9000
G1 E46438.76714 F3600 ; retract
G1 X-64.500 Y-67.500 E48104.54405 F3600
;LAYER:10
G0 Z2.000 F9000
G0 X110.000 Y110.000 F9000
G1 E48103.74405 F3600 ; retract
G1 X-64.500 Y-67.500 E49769.52096 F3600
;LAYER:11
G0 Z2.200 F9000
G0 X110.000 Y110.000 F9000
G1 E49768.72096 F3600 ; retract
G1 X-64.500 Y-67.500 E51434.49788 F3600
;LAYER:12
G0 Z2.400 F9000
G0 X110.000 Y110.000 F9000
G1 E51433.69788 F3600 ; retract
G1 X-64.500 Y-67.500 E63584.39976 F3600
;LAYER:13
G0 Z2.600 F9000
G0 X110.000 Y110.000 F9000
G1 E63583.59976 F3600 ; retract
G1 X-64.500 Y-67.500 E75734.30165 F3600
;LAYER:14
G0 Z2.800 F9000
G0 X110.000 Y110.000 F9000
G1 E75733.50165 F3600 ; retract
G1 X-64.500 Y-67.500 E87884.20353 F3600
M104 S0
M140 S0
G92 E0
M84
