; EON-OpenSlicer slicer_v2 semantic emitter
; firmware=marlin
G21 ; mm units
G90 ; absolute XYZ mode
M82 ; absolute extrusion
G92 E0
;LAYER:0
G0 Z0.100 F9000
G0 X110.000 Y114.469 F9000
G1 E-0.80000 F3600 ; retract
G1 X56.014 Y-67.501 E11253.47648 F3600
;LAYER:1
G0 Z0.200 F9000
G0 X110.000 Y114.469 F9000
G1 E11252.67648 F3600 ; retract
G1 X56.014 Y-67.501 E22507.06470 F3600
;LAYER:2
G0 Z0.400 F9000
G0 X110.000 Y114.469 F9000
G1 E22506.26470 F3600 ; retract
G1 X56.014 Y-67.501 E33760.65291 F3600
;LAYER:3
G0 Z0.600 F9000
G0 X110.000 Y114.469 F9000
G1 E33759.85291 F3600 ; retract
G1 X56.014 Y-67.501 E45014.12940 F3600
;LAYER:4
G0 Z0.800 F9000
G0 X110.000 Y114.469 F9000
G1 E45013.32940 F3600 ; retract
G1 X56.014 Y-67.501 E56267.60588 F3600
M104 S0
M140 S0
G92 E0
M84
