; EON-OpenSlicer slicer_v2 semantic emitter
; firmware=marlin
G21 ; mm units
G90 ; absolute XYZ mode
M82 ; absolute extrusion
G92 E0
;LAYER:0
G0 Z0.100 F9000
G0 X110.000 Y115.108 F9000
G1 E-0.80000 F3600 ; retract
G1 X54.014 Y-112.501 E18298.58202 F3600
;LAYER:1
G0 Z0.200 F9000
G0 X110.000 Y115.108 F9000
G1 E18297.78202 F3600 ; retract
G1 X54.014 Y-112.501 E36597.02935 F3600
;LAYER:2
G0 Z0.400 F9000
G0 X110.000 Y115.108 F9000
G1 E36596.22935 F3600 ; retract
G1 X54.014 Y-112.501 E54895.47619 F3600
;LAYER:3
G0 Z0.600 F9000
G0 X110.000 Y115.108 F9000
G1 E54894.67619 F3600 ; retract
G1 X54.014 Y-112.501 E73194.05753 F3600
;LAYER:4
G0 Z0.800 F9000
G0 X110.000 Y115.108 F9000
G1 E73193.25753 F3600 ; retract
G1 X54.014 Y-112.501 E91492.63956 F3600
M104 S0
M140 S0
G92 E0
M84
