; EON-OpenSlicer slicer_v2 semantic emitter
; firmware=marlin
G21 ; mm units
G90 ; absolute XYZ mode
M82 ; absolute extrusion
G92 E0
;LAYER:0
G0 Z0.100 F9000
G0 X110.000 Y113.942 F9000
G1 E-0.80000 F3600 ; retract
G1 X68.951 Y-11.398 E5338.43987 F3600
;LAYER:1
G0 Z0.200 F9000
G0 X110.000 Y113.942 F9000
G1 E5337.63987 F3600 ; retract
G1 X68.951 Y-11.398 E10676.62945 F3600
;LAYER:2
G0 Z0.400 F9000
G0 X110.000 Y113.942 F9000
G1 E10675.82945 F3600 ; retract
G1 X68.951 Y-11.398 E16014.81904 F3600
;LAYER:3
G0 Z0.600 F9000
G0 X110.000 Y113.942 F9000
G1 E16014.01904 F3600 ; retract
G1 X68.951 Y-11.398 E21353.25891 F3600
;LAYER:4
G0 Z0.800 F9000
G0 X110.000 Y113.942 F9000
G1 E21352.45891 F3600 ; retract
G1 X68.951 Y-11.398 E26691.69878 F3600
M104 S0
M140 S0
G92 E0
M84
