; EON-OpenSlicer slicer_v2 semantic emitter
; firmware=marlin
G21 ; mm units
G90 ; absolute XYZ mode
M82 ; absolute extrusion
G92 E0
;LAYER:0
G0 Z0.100 F9000
G0 X110.000 Y115.108 F9000
G1 E-0.80000 F3600 ; retract
G1 X54.014 Y-112.501 E18355.94376 F3600
;LAYER:1
G0 Z0.200 F9000
G0 X110.000 Y115.108 F9000
G1 E18355.14376 F3600 ; retract
G1 X54.014 Y-112.501 E36711.75283 F3600
;LAYER:2
G0 Z0.400 F9000
G0 X110.000 Y115.108 F9000
G1 E36710.95283 F3600 ; retract
G1 X54.014 Y-112.501 E55067.56140 F3600
;LAYER:3
G0 Z0.600 F9000
G0 X110.000 Y115.108 F9000
G1 E55066.76140 F3600 ; retract
G1 X54.014 Y-112.501 E73423.50448 F3600
;LAYER:4
G0 Z0.800 F9000
G0 X110.000 Y115.108 F9000
G1 E73422.70448 F3600 ; retract
G1 X54.014 Y-112.501 E91779.44824 F3600
M104 S0
M140 S0
G92 E0
M84
